{"type": "FeatureCollection", "features": [ {"type": "Feature", "properties": {"norad_id": 42741, "name": "EUTELSAT 172B", "group": "eutelsat", "lat": 0.019829175362734416, "lon": 122.6227843818192, "alt_km": 35785.31486839534, "timestamp": "2025-12-21T14:40:47.582208+00:00", "meta": {"OBJECT_NAME": "EUTELSAT 172B", "OBJECT_ID": "2017-029B", "EPOCH": "2025-12-21T03:54:38.769408", "MEAN_MOTION": 1.00271576, "ECCENTRICITY": 2.138e-05, "INCLINATION": 0.0339, "RA_OF_ASC_NODE": 123.0997, "ARG_OF_PERICENTER": 332.7082, "MEAN_ANOMALY": 224.8432, "EPHEMERIS_TYPE": 0, "CLASSIFICATION_TYPE": "U", "NORAD_CAT_ID": 42741, "ELEMENT_SET_NO": 999, "REV_AT_EPOCH": 3194, "BSTAR": 0, "MEAN_MOTION_DOT": 1.7e-07, "MEAN_MOTION_DDOT": 0}, "tle": {"line1": "1 42741U 17029B   25355.16294872  .00000017  00000+0  00000+0 0  9992", "line2": "2 42741   0.0339 123.0997 0000213 332.7082 224.8432  1.00271576 31948"}}, "geometry": {"type": "Point", "coordinates": [122.6227843818192, 0.019829175362734416]}}, {"type": "Feature", "properties": {"norad_id": 44334, "name": "EUTELSAT 7C", "group": "eutelsat", "lat": 0.030405600820159348, "lon": -42.3522775018635, "alt_km": 35778.07536596107, "timestamp": "2025-12-21T14:40:47.582219+00:00", "meta": {"OBJECT_NAME": "EUTELSAT 7C", "OBJECT_ID": "2019-034B", "EPOCH": "2025-12-21T03:32:38.808096", "MEAN_MOTION": 1.00275585, "ECCENTRICITY": 0.00032957, "INCLINATION": 0.0735, "RA_OF_ASC_NODE": 180.1639, "ARG_OF_PERICENTER": 76.9681, "MEAN_ANOMALY": 252.9905, "EPHEMERIS_TYPE": 0, "CLASSIFICATION_TYPE": "U", "NORAD_CAT_ID": 44334, "ELEMENT_SET_NO": 999, "REV_AT_EPOCH": 505, "BSTAR": 0, "MEAN_MOTION_DOT": 7.2e-07, "MEAN_MOTION_DDOT": 0}, "tle": {"line1": "1 44334U 19034B   25355.14767139  .00000072  00000+0  00000+0 0  9990", "line2": "2 44334   0.0735 180.1639 0003295  76.9681 252.9905  1.00275585  5054"}}, "geometry": {"type": "Point", "coordinates": [-42.3522775018635, 0.030405600820159348]}}, {"type": "Feature", "properties": {"norad_id": 44624, "name": "EUTELSAT 5 WEST B", "group": "eutelsat", "lat": -0.053445533845642205, "lon": -54.3569964024709, "alt_km": 35775.844668101156, "timestamp": "2025-12-21T14:40:47.582231+00:00", "meta": {"OBJECT_NAME": "EUTELSAT 5 WEST B", "OBJECT_ID": "2019-067A", "EPOCH": "2025-12-21T03:40:38.749728", "MEAN_MOTION": 1.00271336, "ECCENTRICITY": 0.00030096, "INCLINATION": 0.0667, "RA_OF_ASC_NODE": 336.125, "ARG_OF_PERICENTER": 293.8202, "MEAN_ANOMALY": 230.1981, "EPHEMERIS_TYPE": 0, "CLASSIFICATION_TYPE": "U", "NORAD_CAT_ID": 44624, "ELEMENT_SET_NO": 999, "REV_AT_EPOCH": 2265, "BSTAR": 0, "MEAN_MOTION_DOT": -1.9e-07, "MEAN_MOTION_DDOT": 0}, "tle": {"line1": "1 44624U 19067A   25355.15322627 -.00000019  00000+0  00000+0 0  9990", "line2": "2 44624   0.0667 336.1250 0003009 293.8202 230.1981  1.00271336 22651"}}, "geometry": {"type": "Point", "coordinates": [-54.3569964024709, -0.053445533845642205]}}, {"type": "Feature", "properties": {"norad_id": 45027, "name": "EUTELSAT KONNECT", "group": "eutelsat", "lat": -0.061879752134169644, "lon": -42.14779217495699, "alt_km": 35779.02020267142, "timestamp": "2025-12-21T14:40:47.582242+00:00", "meta": {"OBJECT_NAME": "EUTELSAT KONNECT", "OBJECT_ID": "2020-005B", "EPOCH": "2025-12-21T03:32:38.808096", "MEAN_MOTION": 1.00277731, "ECCENTRICITY": 0.00017067, "INCLINATION": 0.0689, "RA_OF_ASC_NODE": 95.0259, "ARG_OF_PERICENTER": 180.8319, "MEAN_ANOMALY": 234.4854, "EPHEMERIS_TYPE": 0, "CLASSIFICATION_TYPE": "U", "NORAD_CAT_ID": 45027, "ELEMENT_SET_NO": 999, "REV_AT_EPOCH": 2255, "BSTAR": 0, "MEAN_MOTION_DOT": 7.4e-07, "MEAN_MOTION_DDOT": 0}, "tle": {"line1": "1 45027U 20005B   25355.14767139  .00000074  00000+0  00000+0 0  9992", "line2": "2 45027   0.0689  95.0259 0001706 180.8319 234.4854  1.00277731 22559"}}, "geometry": {"type": "Point", "coordinates": [-42.14779217495699, -0.061879752134169644]}}, {"type": "Feature", "properties": {"norad_id": 49056, "name": "EUTELSAT QUANTUM", "group": "eutelsat", "lat": -0.019107779139144868, "lon": -1.6361670707672746, "alt_km": 35783.094455616796, "timestamp": "2025-12-21T14:40:47.582254+00:00", "meta": {"OBJECT_NAME": "EUTELSAT QUANTUM", "OBJECT_ID": "2021-069B", "EPOCH": "2025-12-21T05:59:38.815584", "MEAN_MOTION": 1.00272335, "ECCENTRICITY": 0.00033486, "INCLINATION": 0.0211, "RA_OF_ASC_NODE": 39.1819, "ARG_OF_PERICENTER": 240.6155, "MEAN_ANOMALY": 307.8928, "EPHEMERIS_TYPE": 0, "CLASSIFICATION_TYPE": "U", "NORAD_CAT_ID": 49056, "ELEMENT_SET_NO": 999, "REV_AT_EPOCH": 1614, "BSTAR": 0, "MEAN_MOTION_DOT": 1.49e-06, "MEAN_MOTION_DDOT": 0}, "tle": {"line1": "1 49056U 21069B   25355.24975481  .00000149  00000+0  00000+0 0  9994", "line2": "2 49056   0.0211  39.1819 0003348 240.6155 307.8928  1.00272335 16144"}}, "geometry": {"type": "Point", "coordinates": [-1.6361670707672746, -0.019107779139144868]}}, {"type": "Feature", "properties": {"norad_id": 53765, "name": "EUTELSAT KONNECT VHTS", "group": "eutelsat", "lat": -0.05082035542770739, "lon": -46.603559683555915, "alt_km": 35783.40885170983, "timestamp": "2025-12-21T14:40:47.582266+00:00", "meta": {"OBJECT_NAME": "EUTELSAT KONNECT VHTS", "OBJECT_ID": "2022-110A", "EPOCH": "2025-12-21T03:32:38.808096", "MEAN_MOTION": 1.00273259, "ECCENTRICITY": 0.00027862, "INCLINATION": 0.0618, "RA_OF_ASC_NODE": 99.8078, "ARG_OF_PERICENTER": 134.255, "MEAN_ANOMALY": 271.8139, "EPHEMERIS_TYPE": 0, "CLASSIFICATION_TYPE": "U", "NORAD_CAT_ID": 53765, "ELEMENT_SET_NO": 999, "REV_AT_EPOCH": 504, "BSTAR": 0, "MEAN_MOTION_DOT": 4.1e-07, "MEAN_MOTION_DDOT": 0}, "tle": {"line1": "1 53765U 22110A   25355.14767139  .00000041  00000+0  00000+0 0  9993", "line2": "2 53765   0.0618  99.8078 0002786 134.2550 271.8139  1.00273259  5046"}}, "geometry": {"type": "Point", "coordinates": [-46.603559683555915, -0.05082035542770739]}}, {"type": "Feature", "properties": {"norad_id": 54048, "name": "EUTELSAT HOTBIRD 13F", "group": "eutelsat", "lat": 0.012448502104924505, "lon": -36.39425748411419, "alt_km": 35777.71955883543, "timestamp": "2025-12-21T14:40:47.582277+00:00", "meta": {"OBJECT_NAME": "EUTELSAT HOTBIRD 13F", "OBJECT_ID": "2022-134A", "EPOCH": "2025-12-21T02:59:15.326880", "MEAN_MOTION": 1.00274346, "ECCENTRICITY": 0.00022836, "INCLINATION": 0.0523, "RA_OF_ASC_NODE": 292.1414, "ARG_OF_PERICENTER": 68.9297, "MEAN_ANOMALY": 146.6896, "EPHEMERIS_TYPE": 0, "CLASSIFICATION_TYPE": "U", "NORAD_CAT_ID": 54048, "ELEMENT_SET_NO": 999, "REV_AT_EPOCH": 1159, "BSTAR": 0, "MEAN_MOTION_DOT": 1.11e-06, "MEAN_MOTION_DDOT": 0}, "tle": {"line1": "1 54048U 22134A   25355.12448295  .00000111  00000+0  00000+0 0  9999", "line2": "2 54048   0.0523 292.1414 0002283  68.9297 146.6896  1.00274346 11595"}}, "geometry": {"type": "Point", "coordinates": [-36.39425748411419, 0.012448502104924505]}}, {"type": "Feature", "properties": {"norad_id": 54225, "name": "EUTELSAT HOTBIRD 13G", "group": "eutelsat", "lat": 0.023834785734260944, "lon": -36.369774988361684, "alt_km": 35791.8814890022, "timestamp": "2025-12-21T14:40:47.582289+00:00", "meta": {"OBJECT_NAME": "EUTELSAT HOTBIRD 13G", "OBJECT_ID": "2022-146A", "EPOCH": "2025-12-21T03:24:38.628000", "MEAN_MOTION": 1.00273909, "ECCENTRICITY": 0.0001862, "INCLINATION": 0.0535, "RA_OF_ASC_NODE": 228.7562, "ARG_OF_PERICENTER": 309.3055, "MEAN_ANOMALY": 336.0609, "EPHEMERIS_TYPE": 0, "CLASSIFICATION_TYPE": "U", "NORAD_CAT_ID": 54225, "ELEMENT_SET_NO": 999, "REV_AT_EPOCH": 568, "BSTAR": 0, "MEAN_MOTION_DOT": 1.1e-06, "MEAN_MOTION_DDOT": 0}, "tle": {"line1": "1 54225U 22146A   25355.14211375  .00000110  00000+0  00000+0 0  9997", "line2": "2 54225   0.0535 228.7562 0001862 309.3055 336.0609  1.00273909  5684"}}, "geometry": {"type": "Point", "coordinates": [-36.369774988361684, 0.023834785734260944]}}, {"type": "Feature", "properties": {"norad_id": 54259, "name": "EUTELSAT 10B", "group": "eutelsat", "lat": -0.05698866125762109, "lon": -39.37828670569822, "alt_km": 35788.2776165203, "timestamp": "2025-12-21T14:40:47.582301+00:00", "meta": {"OBJECT_NAME": "EUTELSAT 10B", "OBJECT_ID": "2022-157A", "EPOCH": "2025-12-21T03:24:38.628000", "MEAN_MOTION": 1.00272805, "ECCENTRICITY": 7.49e-05, "INCLINATION": 0.0623, "RA_OF_ASC_NODE": 96.4166, "ARG_OF_PERICENTER": 6.6781, "MEAN_ANOMALY": 48.0384, "EPHEMERIS_TYPE": 0, "CLASSIFICATION_TYPE": "U", "NORAD_CAT_ID": 54259, "ELEMENT_SET_NO": 999, "REV_AT_EPOCH": 1124, "BSTAR": 0, "MEAN_MOTION_DOT": 9.2e-07, "MEAN_MOTION_DDOT": 0}, "tle": {"line1": "1 54259U 22157A   25355.14211375  .00000092  00000+0  00000+0 0  9995", "line2": "2 54259   0.0623  96.4166 0000749   6.6781  48.0384  1.00272805 11248"}}, "geometry": {"type": "Point", "coordinates": [-39.37828670569822, -0.05698866125762109]}}, {"type": "Feature", "properties": {"norad_id": 59346, "name": "EUTELSAT 36D", "group": "eutelsat", "lat": -0.02666045145659838, "lon": -13.529044433314374, "alt_km": 35783.79044907502, "timestamp": "2025-12-21T14:40:47.582317+00:00", "meta": {"OBJECT_NAME": "EUTELSAT 36D", "OBJECT_ID": "2024-059A", "EPOCH": "2025-12-21T06:07:38.523072", "MEAN_MOTION": 1.00273345, "ECCENTRICITY": 4.431e-05, "INCLINATION": 0.0249, "RA_OF_ASC_NODE": 28.9541, "ARG_OF_PERICENTER": 330.2817, "MEAN_ANOMALY": 218.6034, "EPHEMERIS_TYPE": 0, "CLASSIFICATION_TYPE": "U", "NORAD_CAT_ID": 59346, "ELEMENT_SET_NO": 999, "REV_AT_EPOCH": 636, "BSTAR": 0, "MEAN_MOTION_DOT": 0, "MEAN_MOTION_DDOT": 0}, "tle": {"line1": "1 59346U 24059A   25355.25530698  .00000000  00000+0  00000+0 0  9993", "line2": "2 59346   0.0249  28.9541 0000443 330.2817 218.6034  1.00273345  6362"}}, "geometry": {"type": "Point", "coordinates": [-13.529044433314374, -0.02666045145659838]}}]}